HST                     
1 20580U 90037B   26062.41753730  .00009009  00000+0  29940-3 0  9994
2 20580  28.4702  82.7831 0001695  63.3001 296.7768 15.29363841772354
POLAR                   
1 23802U 96013A   26061.74629649  .00000178  00000+0  00000+0 0  9990
2 23802  79.7411 228.2678 6362278 212.6879  83.6731  1.29845818143473
SWAS                    
1 25560U 98071A   26062.63469597  .00006031  00000+0  38879-3 0  9995
2 25560  69.8969 139.5634 0003487  23.1006 337.0314 15.08822570481341
CXO                     
1 25867U 99040B   26063.59985680  .00000824  00000+0  00000+0 0  9999
2 25867  54.4843 119.7682 8003286 310.7757   0.4217  0.37808937 16926
XMM-NEWTON              
1 25989U 99066A   26061.64181856  .00000062  00000+0  00000+0 0  9993
2 25989  65.0189 284.3763 4712552  66.8130 359.9781  0.50131664 22470
TERRA                   
1 25994U 99068A   26062.75824642  .00000583  00000+0  12797-3 0  9999
2 25994  97.9606 116.4193 0002299 165.9720 262.2336 14.61007359394214
CLUSTER II-FM7 (SAMBA)  
1 26410U 00041A   26063.25310773  .00003639  00000+0  00000+0 0  9992
2 26410 148.9920  34.5676 8908777 250.6745 359.7226  0.44785609 19832
CLUSTER II-FM8 (TANGO)  
1 26464U 00045B   26049.06287974  .00004776  00000+0  00000+0 0  9997
2 26464 149.0711  33.5376 8890045 249.4570 359.4916  0.44405995 19769
ODIN                    
1 26702U 01007A   26062.62648409  .00052767  00000+0  70300-3 0  9999
2 26702  97.4080  98.4251 0004083 154.8687 205.2768 15.57969489372892
TIMED                   
1 26998U 01055B   26062.48955191  .00001682  00000+0  15738-3 0  9996
2 26998  74.0660  87.7998 0002960 282.5183  77.5670 14.94999138315023
CORIOLIS                
1 27640U 03001A   26062.63950977  .00000195  00000+0  11238-3 0  9997
2 27640  98.7161  71.1242 0014499 153.1511 207.0418 14.19910037199246
SORCE                   
1 27651U 03004A   26062.65290785  .00004692  00000+0  35208-3 0  9997
2 27651  39.9905 143.5088 0016677   9.7243 350.3871 15.03042744256010
MOST                    
1 27843U 03031D   26062.61533789  .00000114  00000+0  72299-4 0  9997
2 27843  98.7082  71.8006 0009598 191.1531 168.9435 14.21297264175719
SCISAT 1                
1 27858U 03036A   26062.80735333  .00001265  00000+0  16665-3 0  9990
2 27858  73.9315  20.6973 0005883 114.7235 245.4554 14.81297638215842
SWIFT                   
1 28485U 04047A   26062.78638314  .00052726  00000+0  64300-3 0  9995
2 28485  20.5532 272.1083 0003130 317.0945  42.9255 15.58696064170347
HINODE (SOLAR-B)        
1 29479U 06041A   26062.64346868  .00000932  00000+0  16910-3 0  9996
2 29479  98.0628  80.3262 0016140 262.3103  97.6269 14.68462453 39381
SHIJIAN-6 02A (SJ-6 02A)
1 29505U 06046A   26062.83562112  .00006280  00000+0  33425-3 0  9996
2 29505  97.6510 103.1349 0004377 127.2553 232.9078 15.15592369 56309
